STARLINK-31437          
1 60057U 24112V   25256.95375650 -.00000302  00000+0  19156-5 0  9990
2 60057  53.1592 179.1927 0000942  89.6846 270.4263 15.30194969 71534
STARLINK-11181 [DTC]    
1 60059U 24113A   25256.97051180 -.00001413  00000+0 -68051-5 0  9997
2 60059  53.1590 342.5080 0001156  92.6013 267.5137 15.69709501 71801
STARLINK-11176 [DTC]    
1 60060U 24113B   25256.96560936 -.00000531  00000+0  47016-6 0  9990
2 60060  53.1584 342.4766 0000979  78.5235 281.5893 15.69703820 71800
STARLINK-11167 [DTC]    
1 60061U 24113C   25256.96070046 -.00000812  00000+0 -18452-5 0  9993
2 60061  53.1601 342.4435 0001291  80.4569 279.6594 15.69709868 72102
STARLINK-11166 [DTC]    
1 60062U 24113D   25256.51012404 -.00002291  00000+0 -14059-4 0  9990
2 60062  53.1590 344.6058 0000927  91.4935 268.6189 15.69705149 71733
STARLINK-11165 [DTC]    
1 60063U 24113E   25256.95088943 -.00000070  00000+0  42831-5 0  9992
2 60063  53.1592 342.3768 0001506  88.9907 271.1283 15.69710931 71800
STARLINK-11169 [DTC]    
1 60064U 24113F   25257.26433023  .00000748  00000+0  11038-4 0  9996
2 60064  53.1582 340.7750 0001065  83.5345 276.5795 15.69701363 71851
STARLINK-11102 [DTC]    
1 60065U 24113G   25257.25942536 -.00000276  00000+0  25757-5 0  9991
2 60065  53.1599 340.7429 0000914  89.4111 270.7012 15.69709671 71859
STARLINK-11141 [DTC]    
1 60066U 24113H   25256.55416207 -.00000305  00000+0  23462-5 0  9999
2 60066  53.1582 344.1642 0001183  58.5615 301.5519 15.69700847 71741
STARLINK-11153 [DTC]    
1 60067U 24113J   25257.24971746  .00000535  00000+0  92789-5 0  9993
2 60067  53.1592 341.4122 0001308  82.5620 277.5547 15.69699140 71845
STARLINK-11170 [DTC]    
1 60068U 24113K   25257.24481180 -.00000458  00000+0  10743-5 0  9997
2 60068  53.1588 341.3783 0000897  88.5005 271.6116 15.69701719 71841
STARLINK-11171 [DTC]    
1 60069U 24113L   25257.23990432  .00022328  00000+0  18854-3 0  9990
2 60069  53.1576 341.3455 0000833  88.5907 271.5207 15.69724359 71841
STARLINK-11186 [DTC]    
1 60070U 24113M   25257.23500106 -.00000176  00000+0  34087-5 0  9993
2 60070  53.1594 341.3154 0001165  83.9834 276.1316 15.69701114 72258
STARLINK-11184 [DTC]    
1 60071U 24113N   25257.23010094  .00000896  00000+0  12258-4 0  9999
2 60071  53.1587 341.3186 0001117  81.3146 278.7999 15.69696511 71844
STARLINK-32032          
1 60077U 24113U   25256.88028834 -.00000750  00000+0 -13214-4 0  9990
2 60077  53.1598 100.0933 0001152  96.1781 263.9351 15.30194259 70162
STARLINK-31441          
1 60091U 24117A   25257.05258419  .00009210  00000+0  32267-3 0  9990
2 60091  53.1561 137.5094 0000919 109.9453 250.1647 15.30202827 69840
