[{"OBJECT_NAME":"STARLINK-31437","OBJECT_ID":"2024-112V","EPOCH":"2025-09-13T22:53:24.561600","MEAN_MOTION":15.30194969,"ECCENTRICITY":9.425e-5,"INCLINATION":53.1592,"RA_OF_ASC_NODE":179.1927,"ARG_OF_PERICENTER":89.6846,"MEAN_ANOMALY":270.4263,"EPHEMERIS_TYPE":0,"CLASSIFICATION_TYPE":"U","NORAD_CAT_ID":60057,"ELEMENT_SET_NO":999,"REV_AT_EPOCH":7153,"BSTAR":1.915603e-6,"MEAN_MOTION_DOT":-3.02e-6,"MEAN_MOTION_DDOT":0},{"OBJECT_NAME":"STARLINK-11181 [DTC]","OBJECT_ID":"2024-113A","EPOCH":"2025-09-13T23:17:32.219520","MEAN_MOTION":15.69709501,"ECCENTRICITY":0.00011566,"INCLINATION":53.159,"RA_OF_ASC_NODE":342.508,"ARG_OF_PERICENTER":92.6013,"MEAN_ANOMALY":267.5137,"EPHEMERIS_TYPE":0,"CLASSIFICATION_TYPE":"U","NORAD_CAT_ID":60059,"ELEMENT_SET_NO":999,"REV_AT_EPOCH":7180,"BSTAR":-6.805118e-6,"MEAN_MOTION_DOT":-1.413e-5,"MEAN_MOTION_DDOT":0},{"OBJECT_NAME":"STARLINK-11176 [DTC]","OBJECT_ID":"2024-113B","EPOCH":"2025-09-13T23:10:28.648704","MEAN_MOTION":15.6970382,"ECCENTRICITY":9.794e-5,"INCLINATION":53.1584,"RA_OF_ASC_NODE":342.4766,"ARG_OF_PERICENTER":78.5235,"MEAN_ANOMALY":281.5893,"EPHEMERIS_TYPE":0,"CLASSIFICATION_TYPE":"U","NORAD_CAT_ID":60060,"ELEMENT_SET_NO":999,"REV_AT_EPOCH":7180,"BSTAR":4.70157e-7,"MEAN_MOTION_DOT":-5.31e-6,"MEAN_MOTION_DDOT":0},{"OBJECT_NAME":"STARLINK-11167 [DTC]","OBJECT_ID":"2024-113C","EPOCH":"2025-09-13T23:03:24.519744","MEAN_MOTION":15.69709868,"ECCENTRICITY":0.00012912,"INCLINATION":53.1601,"RA_OF_ASC_NODE":342.4435,"ARG_OF_PERICENTER":80.4569,"MEAN_ANOMALY":279.6594,"EPHEMERIS_TYPE":0,"CLASSIFICATION_TYPE":"U","NORAD_CAT_ID":60061,"ELEMENT_SET_NO":999,"REV_AT_EPOCH":7210,"BSTAR":-1.845247e-6,"MEAN_MOTION_DOT":-8.12e-6,"MEAN_MOTION_DDOT":0},{"OBJECT_NAME":"STARLINK-11166 [DTC]","OBJECT_ID":"2024-113D","EPOCH":"2025-09-13T12:14:34.717056","MEAN_MOTION":15.69705149,"ECCENTRICITY":9.276e-5,"INCLINATION":53.159,"RA_OF_ASC_NODE":344.6058,"ARG_OF_PERICENTER":91.4935,"MEAN_ANOMALY":268.6189,"EPHEMERIS_TYPE":0,"CLASSIFICATION_TYPE":"U","NORAD_CAT_ID":60062,"ELEMENT_SET_NO":999,"REV_AT_EPOCH":7173,"BSTAR":-1.405866e-5,"MEAN_MOTION_DOT":-2.291e-5,"MEAN_MOTION_DDOT":0},{"OBJECT_NAME":"STARLINK-11165 [DTC]","OBJECT_ID":"2024-113E","EPOCH":"2025-09-13T22:49:16.846752","MEAN_MOTION":15.69710931,"ECCENTRICITY":0.00015062,"INCLINATION":53.1592,"RA_OF_ASC_NODE":342.3768,"ARG_OF_PERICENTER":88.9907,"MEAN_ANOMALY":271.1283,"EPHEMERIS_TYPE":0,"CLASSIFICATION_TYPE":"U","NORAD_CAT_ID":60063,"ELEMENT_SET_NO":999,"REV_AT_EPOCH":7180,"BSTAR":4.283096e-6,"MEAN_MOTION_DOT":-7.0e-7,"MEAN_MOTION_DDOT":0},{"OBJECT_NAME":"STARLINK-11169 [DTC]","OBJECT_ID":"2024-113F","EPOCH":"2025-09-14T06:20:38.131872","MEAN_MOTION":15.69701363,"ECCENTRICITY":0.00010654,"INCLINATION":53.1582,"RA_OF_ASC_NODE":340.775,"ARG_OF_PERICENTER":83.5345,"MEAN_ANOMALY":276.5795,"EPHEMERIS_TYPE":0,"CLASSIFICATION_TYPE":"U","NORAD_CAT_ID":60064,"ELEMENT_SET_NO":999,"REV_AT_EPOCH":7185,"BSTAR":1.1038036e-5,"MEAN_MOTION_DOT":7.48e-6,"MEAN_MOTION_DDOT":0},{"OBJECT_NAME":"STARLINK-11102 [DTC]","OBJECT_ID":"2024-113G","EPOCH":"2025-09-14T06:13:34.351104","MEAN_MOTION":15.69709671,"ECCENTRICITY":9.147e-5,"INCLINATION":53.1599,"RA_OF_ASC_NODE":340.7429,"ARG_OF_PERICENTER":89.4111,"MEAN_ANOMALY":270.7012,"EPHEMERIS_TYPE":0,"CLASSIFICATION_TYPE":"U","NORAD_CAT_ID":60065,"ELEMENT_SET_NO":999,"REV_AT_EPOCH":7185,"BSTAR":2.575661e-6,"MEAN_MOTION_DOT":-2.76e-6,"MEAN_MOTION_DDOT":0},{"OBJECT_NAME":"STARLINK-11141 [DTC]","OBJECT_ID":"2024-113H","EPOCH":"2025-09-13T13:17:59.602848","MEAN_MOTION":15.69700847,"ECCENTRICITY":0.00011838,"INCLINATION":53.1582,"RA_OF_ASC_NODE":344.1642,"ARG_OF_PERICENTER":58.5615,"MEAN_ANOMALY":301.5519,"EPHEMERIS_TYPE":0,"CLASSIFICATION_TYPE":"U","NORAD_CAT_ID":60066,"ELEMENT_SET_NO":999,"REV_AT_EPOCH":7174,"BSTAR":2.346169e-6,"MEAN_MOTION_DOT":-3.05e-6,"MEAN_MOTION_DDOT":0},{"OBJECT_NAME":"STARLINK-11153 [DTC]","OBJECT_ID":"2024-113J","EPOCH":"2025-09-14T05:59:35.588544","MEAN_MOTION":15.6969914,"ECCENTRICITY":0.00013089,"INCLINATION":53.1592,"RA_OF_ASC_NODE":341.4122,"ARG_OF_PERICENTER":82.562,"MEAN_ANOMALY":277.5547,"EPHEMERIS_TYPE":0,"CLASSIFICATION_TYPE":"U","NORAD_CAT_ID":60067,"ELEMENT_SET_NO":999,"REV_AT_EPOCH":7184,"BSTAR":9.27885e-6,"MEAN_MOTION_DOT":5.35e-6,"MEAN_MOTION_DDOT":0},{"OBJECT_NAME":"STARLINK-11170 [DTC]","OBJECT_ID":"2024-113K","EPOCH":"2025-09-14T05:52:31.739520","MEAN_MOTION":15.69701719,"ECCENTRICITY":8.979e-5,"INCLINATION":53.1588,"RA_OF_ASC_NODE":341.3783,"ARG_OF_PERICENTER":88.5005,"MEAN_ANOMALY":271.6116,"EPHEMERIS_TYPE":0,"CLASSIFICATION_TYPE":"U","NORAD_CAT_ID":60068,"ELEMENT_SET_NO":999,"REV_AT_EPOCH":7184,"BSTAR":1.074262e-6,"MEAN_MOTION_DOT":-4.58e-6,"MEAN_MOTION_DDOT":0},{"OBJECT_NAME":"STARLINK-11171 [DTC]","OBJECT_ID":"2024-113L","EPOCH":"2025-09-14T05:45:27.733248","MEAN_MOTION":15.69724359,"ECCENTRICITY":8.339e-5,"INCLINATION":53.1576,"RA_OF_ASC_NODE":341.3455,"ARG_OF_PERICENTER":88.5907,"MEAN_ANOMALY":271.5207,"EPHEMERIS_TYPE":0,"CLASSIFICATION_TYPE":"U","NORAD_CAT_ID":60069,"ELEMENT_SET_NO":999,"REV_AT_EPOCH":7184,"BSTAR":0.00018854391,"MEAN_MOTION_DOT":0.00022328,"MEAN_MOTION_DDOT":0},{"OBJECT_NAME":"STARLINK-11186 [DTC]","OBJECT_ID":"2024-113M","EPOCH":"2025-09-14T05:38:24.091584","MEAN_MOTION":15.69701114,"ECCENTRICITY":0.00011654,"INCLINATION":53.1594,"RA_OF_ASC_NODE":341.3154,"ARG_OF_PERICENTER":83.9834,"MEAN_ANOMALY":276.1316,"EPHEMERIS_TYPE":0,"CLASSIFICATION_TYPE":"U","NORAD_CAT_ID":60070,"ELEMENT_SET_NO":999,"REV_AT_EPOCH":7225,"BSTAR":3.408679e-6,"MEAN_MOTION_DOT":-1.76e-6,"MEAN_MOTION_DDOT":0},{"OBJECT_NAME":"STARLINK-11184 [DTC]","OBJECT_ID":"2024-113N","EPOCH":"2025-09-14T05:31:20.721216","MEAN_MOTION":15.69696511,"ECCENTRICITY":0.00011172,"INCLINATION":53.1587,"RA_OF_ASC_NODE":341.3186,"ARG_OF_PERICENTER":81.3146,"MEAN_ANOMALY":278.7999,"EPHEMERIS_TYPE":0,"CLASSIFICATION_TYPE":"U","NORAD_CAT_ID":60071,"ELEMENT_SET_NO":999,"REV_AT_EPOCH":7184,"BSTAR":1.225793e-5,"MEAN_MOTION_DOT":8.96e-6,"MEAN_MOTION_DDOT":0},{"OBJECT_NAME":"STARLINK-32032","OBJECT_ID":"2024-113U","EPOCH":"2025-09-13T21:07:36.912576","MEAN_MOTION":15.30194259,"ECCENTRICITY":0.00011526,"INCLINATION":53.1598,"RA_OF_ASC_NODE":100.0933,"ARG_OF_PERICENTER":96.1781,"MEAN_ANOMALY":263.9351,"EPHEMERIS_TYPE":0,"CLASSIFICATION_TYPE":"U","NORAD_CAT_ID":60077,"ELEMENT_SET_NO":999,"REV_AT_EPOCH":7016,"BSTAR":-1.3213507e-5,"MEAN_MOTION_DOT":-7.5e-6,"MEAN_MOTION_DDOT":0},{"OBJECT_NAME":"STARLINK-31441","OBJECT_ID":"2024-117A","EPOCH":"2025-09-14T01:15:43.274016","MEAN_MOTION":15.30202827,"ECCENTRICITY":9.199e-5,"INCLINATION":53.1561,"RA_OF_ASC_NODE":137.5094,"ARG_OF_PERICENTER":109.9453,"MEAN_ANOMALY":250.1647,"EPHEMERIS_TYPE":0,"CLASSIFICATION_TYPE":"U","NORAD_CAT_ID":60091,"ELEMENT_SET_NO":999,"REV_AT_EPOCH":6984,"BSTAR":0.00032267063,"MEAN_MOTION_DOT":9.21e-5,"MEAN_MOTION_DDOT":0}]
